[
  {
    "OBJECT_NAME": "STARLINK-34897",
    "OBJECT_ID": "25176Q",
    "EPOCH": "2025-11-11T08:00:03.000384",
    "MEAN_MOTION": 15.30204608,
    "ECCENTRICITY": 0.0001548,
    "INCLINATION": 53.1583,
    "RA_OF_ASC_NODE": 342.699,
    "ARG_OF_PERICENTER": 93.1237,
    "MEAN_ANOMALY": 12.2428,
    "EPHEMERIS_TYPE": 0,
    "CLASSIFICATION_TYPE": "U",
    "NORAD_CAT_ID": 65212,
    "ELEMENT_SET_NO": 999,
    "REV_AT_EPOCH": 591,
    "BSTAR": 0.00034263,
    "MEAN_MOTION_DOT": 9.803e-05,
    "MEAN_MOTION_DDOT": 0.0,
    "TLE_LINE1": "1 65212U 25176Q   25315.33336806  .00009803  00000+0  34263-3 0  9995",
    "TLE_LINE2": "2 65212  53.1583 342.6990 0001548  93.1237  12.2428 15.30204608  5912",
    "COMMENT": "Grouped by shell and plane from TLE"
  },
  {
    "OBJECT_NAME": "STARLINK-34907",
    "OBJECT_ID": "25176R",
    "EPOCH": "2025-11-11T07:09:44.025408",
    "MEAN_MOTION": 15.301996,
    "ECCENTRICITY": 0.0001314,
    "INCLINATION": 53.1584,
    "RA_OF_ASC_NODE": 342.683,
    "ARG_OF_PERICENTER": 85.4833,
    "MEAN_ANOMALY": 274.6318,
    "EPHEMERIS_TYPE": 0,
    "CLASSIFICATION_TYPE": "U",
    "NORAD_CAT_ID": 65213,
    "ELEMENT_SET_NO": 999,
    "REV_AT_EPOCH": 1499,
    "BSTAR": 0.0011603,
    "MEAN_MOTION_DOT": 0.00034164,
    "MEAN_MOTION_DDOT": 0.0,
    "TLE_LINE1": "1 65213U 25176R   25315.29842622  .00034164  00000+0  11603-2 0  9999",
    "TLE_LINE2": "2 65213  53.1584 342.6830 0001314  85.4833 274.6318 15.30199600 14999",
    "COMMENT": "Grouped by shell and plane from TLE"
  },
  {
    "OBJECT_NAME": "STARLINK-34511",
    "OBJECT_ID": "25176S",
    "EPOCH": "2025-11-11T06:24:18.539136",
    "MEAN_MOTION": 15.30218934,
    "ECCENTRICITY": 0.0001201,
    "INCLINATION": 53.1602,
    "RA_OF_ASC_NODE": 343.201,
    "ARG_OF_PERICENTER": 88.0094,
    "MEAN_ANOMALY": 272.1044,
    "EPHEMERIS_TYPE": 0,
    "CLASSIFICATION_TYPE": "U",
    "NORAD_CAT_ID": 65214,
    "ELEMENT_SET_NO": 999,
    "REV_AT_EPOCH": 1492,
    "BSTAR": 0.0010646,
    "MEAN_MOTION_DOT": 0.00031323,
    "MEAN_MOTION_DDOT": 0.0,
    "TLE_LINE1": "1 65214U 25176S   25315.26688124  .00031323  00000+0  10646-2 0  9992",
    "TLE_LINE2": "2 65214  53.1602 343.2010 0001201  88.0094 272.1044 15.30218934 14925",
    "COMMENT": "Grouped by shell and plane from TLE"
  },
  {
    "OBJECT_NAME": "STARLINK-33913",
    "OBJECT_ID": "25176T",
    "EPOCH": "2025-11-11T06:06:50.197824",
    "MEAN_MOTION": 15.30224891,
    "ECCENTRICITY": 0.0001495,
    "INCLINATION": 53.1583,
    "RA_OF_ASC_NODE": 345.253,
    "ARG_OF_PERICENTER": 48.2885,
    "MEAN_ANOMALY": 311.8244,
    "EPHEMERIS_TYPE": 0,
    "CLASSIFICATION_TYPE": "U",
    "NORAD_CAT_ID": 65215,
    "ELEMENT_SET_NO": 999,
    "REV_AT_EPOCH": 1495,
    "BSTAR": 0.0013404,
    "MEAN_MOTION_DOT": 0.00039583,
    "MEAN_MOTION_DDOT": 0.0,
    "TLE_LINE1": "1 65215U 25176T   25315.25474766  .00039583  00000+0  13404-2 0  9998",
    "TLE_LINE2": "2 65215  53.1583 345.2530 0001495  48.2885 311.8244 15.30224891 14959",
    "COMMENT": "Grouped by shell and plane from TLE"
  },
  {
    "OBJECT_NAME": "STARLINK-34302",
    "OBJECT_ID": "25176U",
    "EPOCH": "2025-11-11T06:04:33.400704",
    "MEAN_MOTION": 15.30208791,
    "ECCENTRICITY": 0.0001321,
    "INCLINATION": 53.1596,
    "RA_OF_ASC_NODE": 343.1132,
    "ARG_OF_PERICENTER": 15.5926,
    "MEAN_ANOMALY": 344.5115,
    "EPHEMERIS_TYPE": 0,
    "CLASSIFICATION_TYPE": "U",
    "NORAD_CAT_ID": 65216,
    "ELEMENT_SET_NO": 999,
    "REV_AT_EPOCH": 1498,
    "BSTAR": 0.00059092,
    "MEAN_MOTION_DOT": 0.00017187,
    "MEAN_MOTION_DDOT": 0.0,
    "TLE_LINE1": "1 65216U 25176U   25315.25316436  .00017187  00000+0  59092-3 0  9998",
    "TLE_LINE2": "2 65216  53.1596 343.1132 0001321  15.5926 344.5115 15.30208791 14984",
    "COMMENT": "Grouped by shell and plane from TLE"
  },
  {
    "OBJECT_NAME": "STARLINK-34871",
    "OBJECT_ID": "25176V",
    "EPOCH": "2025-11-11T06:42:29.462688",
    "MEAN_MOTION": 15.39637566,
    "ECCENTRICITY": 0.0001483,
    "INCLINATION": 53.16,
    "RA_OF_ASC_NODE": 342.5717,
    "ARG_OF_PERICENTER": 63.6578,
    "MEAN_ANOMALY": 296.4579,
    "EPHEMERIS_TYPE": 0,
    "CLASSIFICATION_TYPE": "U",
    "NORAD_CAT_ID": 65217,
    "ELEMENT_SET_NO": 999,
    "REV_AT_EPOCH": 1499,
    "BSTAR": 0.0020514,
    "MEAN_MOTION_DOT": 0.00082598,
    "MEAN_MOTION_DDOT": 0.0,
    "TLE_LINE1": "1 65217U 25176V   25315.27950767  .00082598  00000+0  20514-2 0  9996",
    "TLE_LINE2": "2 65217  53.1600 342.5717 0001483  63.6578 296.4579 15.39637566 14994",
    "COMMENT": "Grouped by shell and plane from TLE"
  },
  {
    "OBJECT_NAME": "STARLINK-34833",
    "OBJECT_ID": "25176W",
    "EPOCH": "2025-11-11T07:18:51.130080",
    "MEAN_MOTION": 15.30200065,
    "ECCENTRICITY": 0.0001255,
    "INCLINATION": 53.1577,
    "RA_OF_ASC_NODE": 342.7241,
    "ARG_OF_PERICENTER": 88.7615,
    "MEAN_ANOMALY": 271.3529,
    "EPHEMERIS_TYPE": 0,
    "CLASSIFICATION_TYPE": "U",
    "NORAD_CAT_ID": 65218,
    "ELEMENT_SET_NO": 999,
    "REV_AT_EPOCH": 1499,
    "BSTAR": 0.002002,
    "MEAN_MOTION_DOT": 0.00059409,
    "MEAN_MOTION_DDOT": 0.0,
    "TLE_LINE1": "1 65218U 25176W   25315.30475845  .00059409  00000+0  20020-2 0  9997",
    "TLE_LINE2": "2 65218  53.1577 342.7241 0001255  88.7615 271.3529 15.30200065 14997",
    "COMMENT": "Grouped by shell and plane from TLE"
  },
  {
    "OBJECT_NAME": "STARLINK-34960",
    "OBJECT_ID": "25176X",
    "EPOCH": "2025-11-11T08:00:03.000384",
    "MEAN_MOTION": 15.31373833,
    "ECCENTRICITY": 0.0001735,
    "INCLINATION": 53.1599,
    "RA_OF_ASC_NODE": 342.2264,
    "ARG_OF_PERICENTER": 71.7947,
    "MEAN_ANOMALY": 271.4553,
    "EPHEMERIS_TYPE": 0,
    "CLASSIFICATION_TYPE": "U",
    "NORAD_CAT_ID": 65219,
    "ELEMENT_SET_NO": 999,
    "REV_AT_EPOCH": 561,
    "BSTAR": 0.0,
    "MEAN_MOTION_DOT": -0.01628082,
    "MEAN_MOTION_DDOT": 0.0,
    "TLE_LINE1": "1 65219U 25176X   25315.33336806 -.01628082  00000+0 -58306-1 0  9993",
    "TLE_LINE2": "2 65219  53.1599 342.2264 0001735  71.7947 271.4553 15.31373833  5617",
    "COMMENT": "Grouped by shell and plane from TLE"
  },
  {
    "OBJECT_NAME": "STARLINK-34603",
    "OBJECT_ID": "25176Y",
    "EPOCH": "2025-11-11T08:00:03.000384",
    "MEAN_MOTION": 15.30170447,
    "ECCENTRICITY": 0.0001494,
    "INCLINATION": 53.1595,
    "RA_OF_ASC_NODE": 342.5355,
    "ARG_OF_PERICENTER": 87.8098,
    "MEAN_ANOMALY": 99.0825,
    "EPHEMERIS_TYPE": 0,
    "CLASSIFICATION_TYPE": "U",
    "NORAD_CAT_ID": 65220,
    "ELEMENT_SET_NO": 999,
    "REV_AT_EPOCH": 575,
    "BSTAR": 0.00037771,
    "MEAN_MOTION_DOT": 0.00010834,
    "MEAN_MOTION_DDOT": 0.0,
    "TLE_LINE1": "1 65220U 25176Y   25315.33336806  .00010834  00000+0  37771-3 0  9997",
    "TLE_LINE2": "2 65220  53.1595 342.5355 0001494  87.8098  99.0825 15.30170447  5752",
    "COMMENT": "Grouped by shell and plane from TLE"
  },
  {
    "OBJECT_NAME": "STARLINK-34974",
    "OBJECT_ID": "25176Z",
    "EPOCH": "2025-11-11T08:00:03.000384",
    "MEAN_MOTION": 15.30172732,
    "ECCENTRICITY": 0.000139,
    "INCLINATION": 53.1606,
    "RA_OF_ASC_NODE": 342.3384,
    "ARG_OF_PERICENTER": 89.1889,
    "MEAN_ANOMALY": 196.5819,
    "EPHEMERIS_TYPE": 0,
    "CLASSIFICATION_TYPE": "U",
    "NORAD_CAT_ID": 65221,
    "ELEMENT_SET_NO": 999,
    "REV_AT_EPOCH": 592,
    "BSTAR": 0.00042665,
    "MEAN_MOTION_DOT": 0.00012287,
    "MEAN_MOTION_DDOT": 0.0,
    "TLE_LINE1": "1 65221U 25176Z   25315.33336806  .00012287  00000+0  42665-3 0  9990",
    "TLE_LINE2": "2 65221  53.1606 342.3384 0001390  89.1889 196.5819 15.30172732  5928",
    "COMMENT": "Grouped by shell and plane from TLE"
  },
  {
    "OBJECT_NAME": "STARLINK-34999",
    "OBJECT_ID": "25176AA",
    "EPOCH": "2025-11-11T06:06:04.071456",
    "MEAN_MOTION": 15.30205449,
    "ECCENTRICITY": 0.0001088,
    "INCLINATION": 53.1595,
    "RA_OF_ASC_NODE": 343.1183,
    "ARG_OF_PERICENTER": 82.3815,
    "MEAN_ANOMALY": 277.731,
    "EPHEMERIS_TYPE": 0,
    "CLASSIFICATION_TYPE": "U",
    "NORAD_CAT_ID": 65222,
    "ELEMENT_SET_NO": 999,
    "REV_AT_EPOCH": 1498,
    "BSTAR": 0.00067975,
    "MEAN_MOTION_DOT": 0.0001983,
    "MEAN_MOTION_DDOT": 0.0,
    "TLE_LINE1": "1 65222U 25176AA  25315.25421379  .00019830  00000+0  67975-3 0  9994",
    "TLE_LINE2": "2 65222  53.1595 343.1183 0001088  82.3815 277.7310 15.30205449 14986",
    "COMMENT": "Grouped by shell and plane from TLE"
  },
  {
    "OBJECT_NAME": "STARLINK-34996",
    "OBJECT_ID": "25176AB",
    "EPOCH": "2025-11-11T07:07:42.247200",
    "MEAN_MOTION": 15.32384413,
    "ECCENTRICITY": 0.0001144,
    "INCLINATION": 53.1587,
    "RA_OF_ASC_NODE": 342.6713,
    "ARG_OF_PERICENTER": 4.9344,
    "MEAN_ANOMALY": 355.1669,
    "EPHEMERIS_TYPE": 0,
    "CLASSIFICATION_TYPE": "U",
    "NORAD_CAT_ID": 65223,
    "ELEMENT_SET_NO": 999,
    "REV_AT_EPOCH": 1499,
    "BSTAR": 0.027166000000000003,
    "MEAN_MOTION_DOT": 0.00929682,
    "MEAN_MOTION_DDOT": 0.0,
    "TLE_LINE1": "1 65223U 25176AB  25315.29701675  .00929682  00000+0  27166-1 0  9990",
    "TLE_LINE2": "2 65223  53.1587 342.6713 0001144   4.9344 355.1669 15.32384413 14991",
    "COMMENT": "Grouped by shell and plane from TLE"
  },
  {
    "OBJECT_NAME": "STARLINK-34975",
    "OBJECT_ID": "25176AC",
    "EPOCH": "2025-11-11T06:03:02.010240",
    "MEAN_MOTION": 15.30206302,
    "ECCENTRICITY": 8.95e-05,
    "INCLINATION": 53.1596,
    "RA_OF_ASC_NODE": 343.103,
    "ARG_OF_PERICENTER": 9.7301,
    "MEAN_ANOMALY": 350.3717,
    "EPHEMERIS_TYPE": 0,
    "CLASSIFICATION_TYPE": "U",
    "NORAD_CAT_ID": 65224,
    "ELEMENT_SET_NO": 999,
    "REV_AT_EPOCH": 1498,
    "BSTAR": 0.0007517800000000001,
    "MEAN_MOTION_DOT": 0.00021977,
    "MEAN_MOTION_DDOT": 0.0,
    "TLE_LINE1": "1 65224U 25176AC  25315.25210660  .00021977  00000+0  75178-3 0  9994",
    "TLE_LINE2": "2 65224  53.1596 343.1030 0000895   9.7301 350.3717 15.30206302 14986",
    "COMMENT": "Grouped by shell and plane from TLE"
  }
]